CCSDS_OMM_VERS = 2.0
CREATION_DATE  = 
ORIGINATOR     = 

OBJECT_NAME    = ATLAS CENTAUR R/B
OBJECT_ID      = 1972-065B
CENTER_NAME    = EARTH
REF_FRAME      = TEME
TIME_SYSTEM    = UTC
MEAN_ELEMENT_THEORY = SGP/SGP4

EPOCH          = 2025-11-14T21:12:36.163296
MEAN_MOTION    = 14.77306357
ECCENTRICITY   = .0033211
INCLINATION    = 35.0015
RA_OF_ASC_NODE = 258.3608
ARG_OF_PERICENTER = 125.3765
MEAN_ANOMALY   = 235.0046

EPHEMERIS_TYPE = 0
CLASSIFICATION_TYPE = U
NORAD_CAT_ID   = 6155
ELEMENT_SET_NO = 999
REV_AT_EPOCH   = 82427
BSTAR          = .34139E-3
MEAN_MOTION_DOT = .2463E-4
MEAN_MOTION_DDOT = 0

CCSDS_OMM_VERS = 2.0
CREATION_DATE  = 
ORIGINATOR     = 

OBJECT_NAME    = SL-8 R/B
OBJECT_ID      = 1975-112B
CENTER_NAME    = EARTH
REF_FRAME      = TEME
TIME_SYSTEM    = UTC
MEAN_ELEMENT_THEORY = SGP/SGP4

EPOCH          = 2025-11-14T20:47:35.764224
MEAN_MOTION    = 14.38119886
ECCENTRICITY   = .0015836
INCLINATION    = 74.0609
RA_OF_ASC_NODE = 230.1238
ARG_OF_PERICENTER = 345.3746
MEAN_ANOMALY   = 14.6948

EPHEMERIS_TYPE = 0
CLASSIFICATION_TYPE = U
NORAD_CAT_ID   = 8459
ELEMENT_SET_NO = 999
REV_AT_EPOCH   = 61536
BSTAR          = .20828E-3
MEAN_MOTION_DOT = .606E-5
MEAN_MOTION_DDOT = 0

CCSDS_OMM_VERS = 2.0
CREATION_DATE  = 
ORIGINATOR     = 

OBJECT_NAME    = SL-3 R/B
OBJECT_ID      = 1977-057B
CENTER_NAME    = EARTH
REF_FRAME      = TEME
TIME_SYSTEM    = UTC
MEAN_ELEMENT_THEORY = SGP/SGP4

EPOCH          = 2025-11-14T17:32:44.500704
MEAN_MOTION    = 15.42059633
ECCENTRICITY   = .0007419
INCLINATION    = 97.5677
RA_OF_ASC_NODE = 120.9898
ARG_OF_PERICENTER = 347.6990
MEAN_ANOMALY   = 12.4074

EPHEMERIS_TYPE = 0
CLASSIFICATION_TYPE = U
NORAD_CAT_ID   = 10114
ELEMENT_SET_NO = 999
REV_AT_EPOCH   = 65059
BSTAR          = .35553E-3
MEAN_MOTION_DOT = .15119E-3
MEAN_MOTION_DDOT = 0

CCSDS_OMM_VERS = 2.0
CREATION_DATE  = 
ORIGINATOR     = 

OBJECT_NAME    = SEASAT 1
OBJECT_ID      = 1978-064A
CENTER_NAME    = EARTH
REF_FRAME      = TEME
TIME_SYSTEM    = UTC
MEAN_ELEMENT_THEORY = SGP/SGP4

EPOCH          = 2025-11-14T17:37:28.043040
MEAN_MOTION    = 14.46015568
ECCENTRICITY   = .0002296
INCLINATION    = 108.0067
RA_OF_ASC_NODE = 244.2883
ARG_OF_PERICENTER = 254.9065
MEAN_ANOMALY   = 105.1826

EPHEMERIS_TYPE = 0
CLASSIFICATION_TYPE = U
NORAD_CAT_ID   = 10967
ELEMENT_SET_NO = 999
REV_AT_EPOCH   = 48989
BSTAR          = .31279E-3
MEAN_MOTION_DOT = .979E-5
MEAN_MOTION_DDOT = 0

CCSDS_OMM_VERS = 2.0
CREATION_DATE  = 
ORIGINATOR     = 

OBJECT_NAME    = SL-14 R/B
OBJECT_ID      = 1979-011B
CENTER_NAME    = EARTH
REF_FRAME      = TEME
TIME_SYSTEM    = UTC
MEAN_ELEMENT_THEORY = SGP/SGP4

EPOCH          = 2025-11-14T16:23:05.159904
MEAN_MOTION    = 14.91721411
ECCENTRICITY   = .0017709
INCLINATION    = 82.5259
RA_OF_ASC_NODE = 205.6492
ARG_OF_PERICENTER = 82.1876
MEAN_ANOMALY   = 278.1353

EPHEMERIS_TYPE = 0
CLASSIFICATION_TYPE = U
NORAD_CAT_ID   = 11267
ELEMENT_SET_NO = 999
REV_AT_EPOCH   = 51163
BSTAR          = .12136E-3
MEAN_MOTION_DOT = .125E-4
MEAN_MOTION_DDOT = 0

CCSDS_OMM_VERS = 2.0
CREATION_DATE  = 
ORIGINATOR     = 

OBJECT_NAME    = SL-8 R/B
OBJECT_ID      = 1979-089B
CENTER_NAME    = EARTH
REF_FRAME      = TEME
TIME_SYSTEM    = UTC
MEAN_ELEMENT_THEORY = SGP/SGP4

EPOCH          = 2025-11-14T16:11:40.456320
MEAN_MOTION    = 14.42255613
ECCENTRICITY   = .0014959
INCLINATION    = 74.0679
RA_OF_ASC_NODE = 303.9226
ARG_OF_PERICENTER = 149.7122
MEAN_ANOMALY   = 210.4903

EPHEMERIS_TYPE = 0
CLASSIFICATION_TYPE = U
NORAD_CAT_ID   = 11574
ELEMENT_SET_NO = 999
REV_AT_EPOCH   = 41952
BSTAR          = .20849E-3
MEAN_MOTION_DOT = .662E-5
MEAN_MOTION_DDOT = 0

CCSDS_OMM_VERS = 2.0
CREATION_DATE  = 
ORIGINATOR     = 

OBJECT_NAME    = SL-14 R/B
OBJECT_ID      = 1980-005B
CENTER_NAME    = EARTH
REF_FRAME      = TEME
TIME_SYSTEM    = UTC
MEAN_ELEMENT_THEORY = SGP/SGP4

EPOCH          = 2025-11-14T16:29:43.727424
MEAN_MOTION    = 14.90738953
ECCENTRICITY   = .0015708
INCLINATION    = 82.5159
RA_OF_ASC_NODE = 56.2981
ARG_OF_PERICENTER = 181.7142
MEAN_ANOMALY   = 178.4026

EPHEMERIS_TYPE = 0
CLASSIFICATION_TYPE = U
NORAD_CAT_ID   = 11672
ELEMENT_SET_NO = 999
REV_AT_EPOCH   = 45935
BSTAR          = .14057E-3
MEAN_MOTION_DOT = .1408E-4
MEAN_MOTION_DDOT = 0

CCSDS_OMM_VERS = 2.0
CREATION_DATE  = 
ORIGINATOR     = 

OBJECT_NAME    = SL-8 R/B
OBJECT_ID      = 1981-003B
CENTER_NAME    = EARTH
REF_FRAME      = TEME
TIME_SYSTEM    = UTC
MEAN_ELEMENT_THEORY = SGP/SGP4

EPOCH          = 2025-11-14T12:07:24.947904
MEAN_MOTION    = 15.05622859
ECCENTRICITY   = .0282353
INCLINATION    = 82.9343
RA_OF_ASC_NODE = 36.1603
ARG_OF_PERICENTER = 217.9723
MEAN_ANOMALY   = 140.1305

EPHEMERIS_TYPE = 0
CLASSIFICATION_TYPE = U
NORAD_CAT_ID   = 12139
ELEMENT_SET_NO = 999
REV_AT_EPOCH   = 29731
BSTAR          = .84454E-3
MEAN_MOTION_DOT = .30738E-3
MEAN_MOTION_DDOT = 0

CCSDS_OMM_VERS = 2.0
CREATION_DATE  = 
ORIGINATOR     = 

OBJECT_NAME    = SL-3 R/B
OBJECT_ID      = 1981-046B
CENTER_NAME    = EARTH
REF_FRAME      = TEME
TIME_SYSTEM    = UTC
MEAN_ELEMENT_THEORY = SGP/SGP4

EPOCH          = 2025-11-14T17:45:58.222080
MEAN_MOTION    = 15.38801652
ECCENTRICITY   = .0020592
INCLINATION    = 81.2330
RA_OF_ASC_NODE = 67.4059
ARG_OF_PERICENTER = 60.5716
MEAN_ANOMALY   = 299.7576

EPHEMERIS_TYPE = 0
CLASSIFICATION_TYPE = U
NORAD_CAT_ID   = 12465
ELEMENT_SET_NO = 999
REV_AT_EPOCH   = 42073
BSTAR          = .38052E-3
MEAN_MOTION_DOT = .14742E-3
MEAN_MOTION_DDOT = 0

CCSDS_OMM_VERS = 2.0
CREATION_DATE  = 
ORIGINATOR     = 

OBJECT_NAME    = METEOR PRIRODA
OBJECT_ID      = 1981-065A
CENTER_NAME    = EARTH
REF_FRAME      = TEME
TIME_SYSTEM    = UTC
MEAN_ELEMENT_THEORY = SGP/SGP4

EPOCH          = 2025-11-14T06:06:52.076160
MEAN_MOTION    = 16.16006924
ECCENTRICITY   = .0004503
INCLINATION    = 97.4637
RA_OF_ASC_NODE = 23.1357
ARG_OF_PERICENTER = 262.9557
MEAN_ANOMALY   = 97.1217

EPHEMERIS_TYPE = 0
CLASSIFICATION_TYPE = U
NORAD_CAT_ID   = 12585
ELEMENT_SET_NO = 999
REV_AT_EPOCH   = 42623
BSTAR          = .73139E-3
MEAN_MOTION_DOT = .100928E-1
MEAN_MOTION_DDOT = .69213E-3

CCSDS_OMM_VERS = 2.0
CREATION_DATE  = 
ORIGINATOR     = 

OBJECT_NAME    = SL-3 R/B
OBJECT_ID      = 1981-103B
CENTER_NAME    = EARTH
REF_FRAME      = TEME
TIME_SYSTEM    = UTC
MEAN_ELEMENT_THEORY = SGP/SGP4

EPOCH          = 2025-11-14T17:56:54.448224
MEAN_MOTION    = 15.19751678
ECCENTRICITY   = .0012354
INCLINATION    = 81.1609
RA_OF_ASC_NODE = 348.1276
ARG_OF_PERICENTER = 322.1315
MEAN_ANOMALY   = 37.9045

EPHEMERIS_TYPE = 0
CLASSIFICATION_TYPE = U
NORAD_CAT_ID   = 12904
ELEMENT_SET_NO = 999
REV_AT_EPOCH   = 95576
BSTAR          = .38655E-3
MEAN_MOTION_DOT = .8306E-4
MEAN_MOTION_DDOT = 0

CCSDS_OMM_VERS = 2.0
CREATION_DATE  = 
ORIGINATOR     = 

OBJECT_NAME    = SL-3 R/B
OBJECT_ID      = 1982-013B
CENTER_NAME    = EARTH
REF_FRAME      = TEME
TIME_SYSTEM    = UTC
MEAN_ELEMENT_THEORY = SGP/SGP4

EPOCH          = 2025-11-14T21:06:34.155072
MEAN_MOTION    = 15.20737679
ECCENTRICITY   = .0022236
INCLINATION    = 81.1731
RA_OF_ASC_NODE = 295.2145
ARG_OF_PERICENTER = 202.7741
MEAN_ANOMALY   = 157.2506

EPHEMERIS_TYPE = 0
CLASSIFICATION_TYPE = U
NORAD_CAT_ID   = 13068
ELEMENT_SET_NO = 999
REV_AT_EPOCH   = 38689
BSTAR          = .31034E-3
MEAN_MOTION_DOT = .6899E-4
MEAN_MOTION_DDOT = 0

