ATLAS CENTAUR R/B       
1 06155U 72065B   25318.88375189  .00002463  00000+0  34139-3 0  9992
2 06155  35.0015 258.3608 0033211 125.3765 235.0046 14.77306357824270
SL-8 R/B                
1 08459U 75112B   25318.86638616  .00000606  00000+0  20828-3 0  9999
2 08459  74.0609 230.1238 0015836 345.3746  14.6948 14.38119886615360
SL-3 R/B                
1 10114U 77057B   25318.73107061  .00015119  00000+0  35553-3 0  9997
2 10114  97.5677 120.9898 0007419 347.6990  12.4074 15.42059633650597
SEASAT 1                
1 10967U 78064A   25318.73435235  .00000979  00000+0  31279-3 0  9998
2 10967 108.0067 244.2883 0002296 254.9065 105.1826 14.46015568489899
SL-14 R/B               
1 11267U 79011B   25318.68269861  .00001250  00000+0  12136-3 0  9993
2 11267  82.5259 205.6492 0017709  82.1876 278.1353 14.91721411511630
SL-8 R/B                
1 11574U 79089B   25318.67477380  .00000662  00000+0  20849-3 0  9991
2 11574  74.0679 303.9226 0014959 149.7122 210.4903 14.42255613419525
SL-14 R/B               
1 11672U 80005B   25318.68731166  .00001408  00000+0  14057-3 0  9999
2 11672  82.5159  56.2981 0015708 181.7142 178.4026 14.90738953459358
SL-8 R/B                
1 12139U 81003B   25318.50514986  .00030738  00000+0  84454-3 0  9993
2 12139  82.9343  36.1603 0282353 217.9723 140.1305 15.05622859297319
SL-3 R/B                
1 12465U 81046B   25318.74025720  .00014742  00000+0  38052-3 0  9991
2 12465  81.2330  67.4059 0020592  60.5716 299.7576 15.38801652420731
METEOR PRIRODA          
1 12585U 81065A   25318.25476940  .01009280  69213-3  73139-3 0  9997
2 12585  97.4637  23.1357 0004503 262.9557  97.1217 16.16006924426237
SL-3 R/B                
1 12904U 81103B   25318.74785241  .00008306  00000+0  38655-3 0  9992
2 12904  81.1609 348.1276 0012354 322.1315  37.9045 15.19751678955766
SL-3 R/B                
1 13068U 82013B   25318.87956198  .00006899  00000+0  31034-3 0  9999
2 13068  81.1731 295.2145 0022236 202.7741 157.2506 15.20737679386894
